IRIDIUM 126             
1 42809U 17039G   24028.99568125  .00000066  00000+0  16637-4 0  9992
2 42809  86.3996 357.2973 0002251  79.3822 280.7627 14.34216300345236
IRIDIUM 124             
1 42810U 17039H   24029.22766553  .00000700  00000+0  20211-3 0  9993
2 42810  86.4496 293.9572 0001923  91.3320 268.8101 14.43279257349639
IRIDIUM 128             
1 42811U 17039J   24029.47479871  .00000056  00000+0  13027-4 0  9997
2 42811  86.3959  28.6056 0002108  89.1210 271.0227 14.34217895345329
IRIDIUM 121             
1 42812U 17039K   24029.43331820  .00000407  00000+0  13816-3 0  9990
2 42812  86.3997 357.1362 0002228  86.1467 273.9983 14.34220454345286
IRIDIUM 133             
1 42955U 17061A   24029.50651328  .00000091  00000+0  25513-4 0  9996
2 42955  86.3960  28.6889 0002257  88.5441 271.6013 14.34217126330126
IRIDIUM 100             
1 42956U 17061B   24029.50017397  .00000247  00000+0  81031-4 0  9999
2 42956  86.3957  28.6307 0002102  87.2027 272.9410 14.34218399330143
IRIDIUM 122             
1 42957U 17061C   24028.49169607  .00000079  00000+0  21269-4 0  9999
2 42957  86.3957  29.0502 0002082  86.4805 273.6628 14.34216933329989
IRIDIUM 129             
1 42958U 17061D   24029.49382690  .00000026  00000+0  23057-5 0  9990
2 42958  86.3955  28.6893 0002020  83.2176 276.9249 14.34216967330146
